ONEWEB-0020             
1 45133U 20008C   25165.07941813  .00000267  00000+0  72912-3 0  9996
2 45133  87.8825 109.6621 0002180  76.7555 283.3815 13.10369459260916
ONEWEB-0021             
1 45134U 20008D   25165.09435774 -.00000433  00000+0 -12765-2 0  9999
2 45134  87.8826 109.6916 0001925  83.7020 276.4327 13.10371677261317
ONEWEB-0023             
1 45136U 20008F   25165.10512823 -.00000642  00000+0 -18761-2 0  9998
2 45136  87.8835 109.6745 0001905  72.6650 287.4685 13.10373188260635
ONEWEB-0024             
1 45137U 20008G   25165.07776427  .00000346  00000+0  95348-3 0  9993
2 45137  87.8814 109.6308 0002050  82.4316 277.7044 13.10370744260780
ONEWEB-0025             
1 45138U 20008H   25165.09517225 -.00000487  00000+0 -14326-2 0  9999
2 45138  87.8817 109.6286 0001496  80.1227 280.0070 13.10370578261117
ONEWEB-0026             
1 45139U 20008J   25165.17924702  .00000633  00000+0  17508-2 0  9997
2 45139  87.8841  94.4182 0002228  80.7217 279.4163 13.11416292263752
ONEWEB-0028             
1 45140U 20008K   25164.83080379 -.00000629  00000+0 -18108-2 0  9998
2 45140  87.8843  94.5122 0001318  75.5392 284.5882 13.11415988260344
ONEWEB-0032             
1 45141U 20008L   25165.11096072 -.00002313  00000+0 -66646-2 0  9990
2 45141  87.8929 109.6711 0001912  87.5832 272.5515 13.10361081260954
